ONEWEB-0228             
1 48780U 21045P   24166.72078275  .00000092  00000+0  21151-3 0  9999
2 48780  87.9037  44.9403 0001947  81.9011 278.2341 13.15546613148025
